NORAD_CAT_ID,OBJECT_NAME,OBJECT_TYPE,EPOCH,MEAN_MOTION,ECCENTRICITY,INCLINATION,RA_OF_ASC_NODE,ARG_OF_PERICENTER,MEAN_ANOMALY,BSTAR,MEAN_MOTION_DOT,MEAN_MOTION_DDOT,TLE_LINE0,TLE_LINE1,TLE_LINE2,SEMIMAJOR_AXIS,PERIOD,APOGEE,PERIGEE,DECAYED
53251.0,STARLINK-4129,PAYLOAD,2023-05-29 18:31:31,15.08837308,0.000131,53.2189,70.2633,88.026,272.0883,-1.3042e-05,-4.95e-06,0.0,0 STARLINK-4129,1 53251U 22086K   23149.77189518 -.00000495  00000-0 -13042-4 0  9993,2 53251  53.2189  70.2633 0001310  88.0260 272.0883 15.08837308 47662,6917.889,95.438,540.66,538.847,0.0
53251.0,STARLINK-4129,PAYLOAD,2023-05-30 04:03:50,15.08837372,0.0001394,53.219,68.4774,79.811,280.3039,-1.6694e-05,-5.54e-06,0.0,0 STARLINK-4129,1 53251U 22086K   23150.16933663 -.00000554  00000-0 -16694-4 0  9998,2 53251  53.2190  68.4774 0001394  79.8110 280.3039 15.08837372 47906,6917.888,95.438,540.718,538.789,0.0
53251.0,STARLINK-4129,PAYLOAD,2023-05-30 21:33:04,15.08840954,0.0001378,53.2193,65.2069,105.8753,254.2391,0.00015903,2.244e-05,0.0,0 STARLINK-4129,1 53251U 22086K   23150.89796706  .00002244  00000-0  15903-3 0  9990,2 53251  53.2193  65.2069 0001378 105.8753 254.2391 15.08840954 48010,6917.877,95.437,540.696,538.789,0.0
53251.0,STARLINK-4129,PAYLOAD,2023-05-31 00:43:50,15.08853619,0.0001313,53.2189,64.6115,86.729,273.3852,9.0781e-05,1.158e-05,0.0,0 STARLINK-4129,1 53251U 22086K   23151.03044269  .00001158  00000-0  90781-4 0  9998,2 53251  53.2189  64.6115 0001313  86.7290 273.3852 15.08853619 47859,6917.839,95.437,540.612,538.795,0.0
53251.0,STARLINK-4129,PAYLOAD,2023-05-31 21:23:51,15.08837407,0.0001322,53.2196,60.7471,89.4221,270.6923,0.00011522,1.546e-05,0.0,0 STARLINK-4129,1 53251U 22086K   23151.89157201  .00001546  00000-0  11522-3 0  9999,2 53251  53.2196  60.7471 0001322  89.4221 270.6923 15.08837407 48164,6917.888,95.438,540.668,538.839,0.0
53251.0,STARLINK-4129,PAYLOAD,2023-06-01 00:34:37,15.0884272,0.0001225,53.2182,60.1505,90.1922,269.921,0.00013352,1.838e-05,0.0,0 STARLINK-4129,1 53251U 22086K   23152.02404831  .00001838  00000-0  13352-3 0  9996,2 53251  53.2182  60.1505 0001225  90.1922 269.9210 15.08842720 48007,6917.872,95.437,540.585,538.89,0.0
53251.0,STARLINK-4129,PAYLOAD,2023-06-01 03:45:24,15.08843469,0.0001229,53.2182,59.556,90.1859,269.9274,0.0001429,1.987e-05,0.0,0 STARLINK-4129,1 53251U 22086K   23152.15652813  .00001987  00000-0  14290-3 0  9992,2 53251  53.2182  59.5560 0001229  90.1859 269.9274 15.08843469 48206,6917.87,95.437,540.585,538.885,0.0
53251.0,STARLINK-4129,PAYLOAD,2023-06-02 00:25:25,15.08841691,0.0001219,53.2173,55.6914,84.0981,276.015,-2.1053e-05,-6.23e-06,0.0,0 STARLINK-4129,1 53251U 22086K   23153.01765355 -.00000623  00000-0 -21053-4 0  9998,2 53251  53.2173  55.6914 0001219  84.0981 276.0150 15.08841691 48154,6917.875,95.437,540.584,538.897,0.0
53251.0,STARLINK-4129,PAYLOAD,2023-06-02 03:36:11,15.08844376,0.0001198,53.2172,55.0954,78.7315,281.3811,-3.5043e-05,-8.46e-06,0.0,0 STARLINK-4129,1 53251U 22086K   23153.15013157 -.00000846  00000-0 -35043-4 0  9990,2 53251  53.2172  55.0954 0001198  78.7315 281.3811 15.08844376 48356,6917.867,95.437,540.561,538.903,0.0
53251.0,STARLINK-4129,PAYLOAD,2023-06-02 21:05:25,15.0884537,0.0001652,53.2174,51.8255,72.2264,287.8908,8.9593e-05,1.138e-05,0.0,0 STARLINK-4129,1 53251U 22086K   23153.87876961  .00001138  00000-0  89593-4 0  9991,2 53251  53.2174  51.8255 0001652  72.2264 287.8908 15.08845370 48468,6917.864,95.437,540.872,538.586,0.0
53251.0,STARLINK-4129,PAYLOAD,2023-06-03 00:16:06,15.08919416,0.0001459,53.2176,51.2295,89.9896,270.1263,0.00070964,0.00011048,0.0,0 STARLINK-4129,1 53251U 22086K   23154.01118518  .00011048  00000-0  70964-3 0  9997,2 53251  53.2176  51.2295 0001459  89.9896 270.1263 15.08919416 48304,6917.638,95.433,540.512,538.493,0.0
53251.0,STARLINK-4129,PAYLOAD,2023-06-03 06:37:43,15.08849234,0.0001287,53.2178,50.0394,110.6104,249.5026,9.6365e-05,1.246e-05,0.0,0 STARLINK-4129,1 53251U 22086K   23154.27619730  .00001246  00000-0  96365-4 0  9990,2 53251  53.2178  50.0394 0001287 110.6104 249.5026 15.08849234 48347,6917.852,95.437,540.607,538.827,0.0
53251.0,STARLINK-4129,PAYLOAD,2023-06-03 20:56:14,15.0882362,0.0001164,53.2189,47.3667,71.2011,288.9107,-0.00014728,-2.63e-05,0.0,0 STARLINK-4129,1 53251U 22086K   23154.87238595 -.00002630  00000-0 -14728-3 0  9994,2 53251  53.2189  47.3667 0001164  71.2011 288.9107 15.08823620 48612,6917.93,95.439,540.601,538.99,0.0
53251.0,STARLINK-4129,PAYLOAD,2023-06-04 00:06:59,15.08828557,0.0001098,53.2177,46.7718,92.154,267.9578,-8.4014e-05,-1.624e-05,0.0,0 STARLINK-4129,1 53251U 22086K   23155.00486098 -.00001624  00000-0 -84014-4 0  9991,2 53251  53.2177  46.7718 0001098  92.1540 267.9578 15.08828557 48459,6917.915,95.438,540.54,539.021,0.0
53251.0,STARLINK-4129,PAYLOAD,2023-06-04 11:14:41,15.08835268,0.0001094,53.2181,44.6904,83.0053,277.1064,-4.592e-05,-1.018e-05,0.0,0 STARLINK-4129,1 53251U 22086K   23155.46853751 -.00001018  00000-0 -45920-4 0  9995,2 53251  53.2181  44.6904 0001094  83.0053 277.1064 15.08835268 48700,6917.895,95.438,540.517,539.003,0.0
53251.0,STARLINK-4129,PAYLOAD,2023-06-04 22:22:22,15.08878406,0.0001396,53.2176,42.6086,94.5741,265.5411,-0.00050541,-8.331e-05,0.0,0 STARLINK-4129,1 53251U 22086K   23155.93220827 -.00008331  00000-0 -50541-3 0  9998,2 53251  53.2176  42.6086 0001396  94.5741 265.5411 15.08878406 48774,6917.763,95.435,540.594,538.662,0.0
53251.0,STARLINK-4129,PAYLOAD,2023-06-04 23:57:45,15.0887941,0.0001394,53.2176,42.3112,94.9933,265.1218,-0.00048248,-7.967e-05,0.0,0 STARLINK-4129,1 53251U 22086K   23155.99844490 -.00007967  00000-0 -48248-3 0  9997,2 53251  53.2176  42.3112 0001394  94.9933 265.1218 15.08879410 48605,6917.76,95.435,540.589,538.661,0.0
53251.0,STARLINK-4129,PAYLOAD,2023-06-05 11:05:27,15.08855231,0.000147,53.2177,40.2299,88.3722,271.7438,-0.00025511,-4.347e-05,0.0,0 STARLINK-4129,1 53251U 22086K   23156.46212821 -.00004347  00000-0 -25511-3 0  9994,2 53251  53.2177  40.2299 0001470  88.3722 271.7438 15.08855231 48856,6917.834,95.437,540.716,538.682,0.0
53251.0,STARLINK-4129,PAYLOAD,2023-06-05 20:37:47,15.08828068,0.0001126,53.2178,38.4451,90.7978,269.3143,0.00015648,2.203e-05,0.0,0 STARLINK-4129,1 53251U 22086K   23156.85958207  .00002203  00000-0  15648-3 0  9999,2 53251  53.2178  38.4451 0001126  90.7978 269.3143 15.08828068 48915,6917.917,95.438,540.561,539.003,0.0
53251.0,STARLINK-4129,PAYLOAD,2023-06-06 01:23:56,15.0883432,0.000111,53.2175,37.5528,98.6953,261.4164,0.00022393,3.277e-05,0.0,0 STARLINK-4129,1 53251U 22086K   23157.05829801  .00003277  00000-0  22393-3 0  9996,2 53251  53.2175  37.5528 0001110  98.6953 261.4164 15.08834320 48767,6917.898,95.438,540.531,538.995,0.0
53251.0,STARLINK-4129,PAYLOAD,2023-06-06 18:53:11,15.08833688,0.0001246,53.2177,34.282,85.453,274.6604,0.00022949,3.366e-05,0.0,0 STARLINK-4129,1 53251U 22086K   23157.78694203  .00003366  00000-0  22949-3 0  9998,2 53251  53.2177  34.2820 0001246  85.4530 274.6604 15.08833688 49057,6917.9,95.438,540.627,538.903,0.0
53251.0,STARLINK-4129,PAYLOAD,2023-06-07 01:14:43,15.08851172,0.0001271,53.2177,33.0912,88.8629,271.2509,0.00015797,2.228e-05,0.0,0 STARLINK-4129,1 53251U 22086K   23158.05189109  .00002228  00000-0  15797-3 0  9992,2 53251  53.2177  33.0912 0001271  88.8629 271.2509 15.08851172 48919,6917.846,95.437,540.59,538.832,0.0
53251.0,STARLINK-4129,PAYLOAD,2023-06-07 10:47:03,15.08833142,0.0001079,53.2171,31.3076,66.3627,293.7479,3.5015e-05,2.69e-06,0.0,0 STARLINK-4129,1 53251U 22086K   23158.44934452  .00000269  00000-0  35015-4 0  9993,2 53251  53.2171  31.3076 0001079  66.3627 293.7479 15.08833142 49159,6917.901,95.438,540.513,539.02,0.0
53251.0,STARLINK-4129,PAYLOAD,2023-06-07 18:43:59,15.08833979,0.0001255,53.2175,29.82,87.5266,272.587,7.4139e-05,8.92e-06,0.0,0 STARLINK-4129,1 53251U 22086K   23158.78054652  .00000892  00000-0  74139-4 0  9997,2 53251  53.2175  29.8200 0001255  87.5266 272.5870 15.08833979 49028,6917.899,95.438,540.632,538.896,0.0
53251.0,STARLINK-4129,PAYLOAD,2023-06-07 21:54:45,15.08836498,0.0001156,53.2171,29.2269,77.924,282.1881,9.237e-05,1.182e-05,0.0,0 STARLINK-4129,1 53251U 22086K   23158.91302504  .00001182  00000-0  92370-4 0  9994,2 53251  53.2171  29.2269 0001156  77.9240 282.1881 15.08836498 49228,6917.891,95.438,540.556,538.956,0.0
53251.0,STARLINK-4129,PAYLOAD,2023-06-09 00:56:17,15.0885347,0.0001216,53.2171,24.1707,81.2554,278.8576,0.00023597,3.471e-05,0.0,0 STARLINK-4129,1 53251U 22086K   23160.03909590  .00003471  00000-0  23597-3 0  9995,2 53251  53.2171  24.1707 0001216  81.2554 278.8576 15.08853470 49213,6917.839,95.437,540.545,538.863,0.0
53251.0,STARLINK-4129,PAYLOAD,2023-06-09 21:36:19,15.08845286,0.0001275,53.2169,20.3057,85.4168,274.697,0.00022844,3.35e-05,0.0,0 STARLINK-4129,1 53251U 22086K   23160.90022155  .00003350  00000-0  22844-3 0  9994,2 53251  53.2169  20.3057 0001275  85.4168 274.6970 15.08845286 49520,6917.864,95.437,540.611,538.847,0.0
53251.0,STARLINK-4129,PAYLOAD,2023-06-10 10:19:24,15.0884249,0.0001254,53.2168,17.9279,86.9249,273.1886,1.2362e-05,-9.1e-07,0.0,0 STARLINK-4129,1 53251U 22086K   23161.43014170 -.00000091  00000-0  12362-4 0  9996,2 53251  53.2168  17.9279 0001254  86.9249 273.1886 15.08842490 49603,6917.873,95.437,540.605,538.87,0.0
53251.0,STARLINK-4129,PAYLOAD,2023-06-10 15:05:33,15.08841894,0.0001249,53.2168,17.0356,87.3572,272.7563,1.5494e-05,-4.1e-07,0.0,0 STARLINK-4129,1 53251U 22086K   23161.62886181 -.00000041  00000-0  15494-4 0  9990,2 53251  53.2168  17.0356 0001249  87.3572 272.7563 15.08841894 49455,6917.875,95.437,540.604,538.876,0.0
53251.0,STARLINK-4129,PAYLOAD,2023-06-10 21:27:06,15.08844997,0.0001247,53.2169,15.8463,88.6798,271.4337,0.00010347,1.359e-05,0.0,0 STARLINK-4129,1 53251U 22086K   23161.89382062  .00001359  00000-0  10347-3 0  9991,2 53251  53.2169  15.8463 0001247  88.6798 271.4337 15.08844997 49679,6917.865,95.437,540.593,538.867,0.0
